[[{"manufacturer": "Kauai Kookie"}, {"manufacturer": "Wilde Boldr"}, {"manufacturer": "Pizza Gondole"}, {"manufacturer": "Mammoth", "ateco": "70.22.09", "city": "Arcore", "zipCode": "20862", "address": "VIA GILERA, 102, 20862, Arcore, Monza E Brianza"}, {"manufacturer": "Russo Tiesi", "ateco": "45.20.2", "city": "Chiusa Sclafani", "zipCode": "90030", "address": "CONTRADA RIZZA-ZONA ARTIGIANALE,, 90030, Chiusa Sclafani, Palermo"}, {"manufacturer": "Bravo Xox Geback"}, {"manufacturer": "Coren", "ateco": "43.99.09", "city": "Foggia", "zipCode": "71121", "address": "VIALE MICHELANGELO, 187, 71121, Foggia, Foggia"}, {"manufacturer": "Ania Sp Z O O"}, {"manufacturer": "Wilson s Provisions LLC"}, {"manufacturer": "Stuhrk"}, {"manufacturer": "Carmelo Rodero"}, {"manufacturer": "Hepp Distillerie Hepp"}, {"manufacturer": "Aladin", "ateco": "47.65", "city": "San Severo", "zipCode": "71016", "address": "VIA TRAIANO, 11, 71016, San Severo, Foggia"}, {"manufacturer": "Hanamaruki Hanamaruki Foods Inc"}, {"manufacturer": "New Orleans Fish House"}, {"manufacturer": "King Salomon"}, {"manufacturer": "Veres", "ateco": "68.1", "city": "Merate", "zipCode": "23807", "address": "VIALE VERDI, 88/A, 23807, Merate, Lecco"}, {"manufacturer": "Bionsan"}, {"manufacturer": "Hier Dino"}, {"manufacturer": "Kofetaim"}, {"manufacturer": "Gayraud D En Haut"}, {"manufacturer": "Soria Natural"}, {"manufacturer": "Jean Luc", "ateco": "14.13.1", "city": "Albignasego", "zipCode": "35020", "address": "VIALE LEONINO DA ZARA, 9, 35020, Albignasego, Padova"}, {"manufacturer": "Maitres Laitiers Du Cotentin"}, {"manufacturer": "Les P Tits Fermiers"}, {"manufacturer": "The Garlic Company"}, {"manufacturer": "The Gourmet Collection"}, {"manufacturer": "Polian", "ateco": "62.01", "city": "Roseto Degli Abruzzi", "zipCode": "64026", "address": "VIA F. GIOIA, 11, 64026, Roseto Degli Abruzzi, Teramo"}, {"manufacturer": "Baby Auchan Fr Auchan Baby"}, {"manufacturer": "Monjardin"}, {"manufacturer": "Sg Diet"}, {"manufacturer": "Southern Home"}, {"manufacturer": "Sweet Megan"}, {"manufacturer": "Jochen Schweizer"}, {"manufacturer": "Sorensen S"}, {"manufacturer": "Evrafish"}, {"manufacturer": "La Posada", "ateco": "68.20.01", "city": "Bisceglie", "zipCode": "76011", "address": "VIA ISONZO, 49, 76011, Bisceglie, Bari"}, {"manufacturer": "Pierrot Bio"}, {"manufacturer": "Karma Botanik Biogroup"}, {"manufacturer": "Cocina Mestiza"}, {"manufacturer": "Carpin", "ateco": "68.1", "city": "Carpenedolo", "zipCode": "25013", "address": "VIALE SANTA MARIA, 96, 25013, Carpenedolo, Brescia"}, {"manufacturer": "Cowrind Studios Inc"}, {"manufacturer": "Le Jardinier Glacier"}, {"manufacturer": "Little Rosie S"}, {"manufacturer": "Granjas Redondo"}, {"manufacturer": "Sting", "ateco": "74.90.93", "city": "Lecco", "zipCode": "23900", "address": "VIA ROMA, 78, 23900, Lecco, Lecco"}, {"manufacturer": "Caseificio Del Cigno", "ateco": "10.51.2", "city": "Milano", "zipCode": "20122", "address": "VIA MERLO, 0001, 20122, Milano, Milano", "website": "http://www.caseificiodelcigno.it"}, {"manufacturer": "Pom Claire"}, {"manufacturer": "Le Chambeyron Les Fromages De L Ubaye"}, {"manufacturer": "Les Creations Intermarche"}, {"manufacturer": "Desserissimes"}, {"manufacturer": "Ford Gum"}, {"manufacturer": "Paquet"}, {"manufacturer": "Cock Brand Thai World"}, {"manufacturer": "Les Recoltes De Leon"}, {"manufacturer": "La Crepe De Broceliande"}, {"manufacturer": "Royal Royal Prince"}, {"manufacturer": "Galettes Luzacaise"}, {"manufacturer": "Naturally Nutty Foods Inc"}, {"manufacturer": "Esselunga Ventura"}, {"manufacturer": "C C Foods Corp"}, {"manufacturer": "Giulianos Specialty Foods"}, {"manufacturer": "Ssanggye Tea Co Ltd"}, {"manufacturer": "Stark", "ateco": "56.10.11", "city": "Concesio", "zipCode": "25062", "address": "VIA EUROPA, 110/A, 25062, Concesio, Brescia"}, {"manufacturer": "Lord Nelson Brewery"}, {"manufacturer": "Hungry Punker"}, {"manufacturer": "Bio Village Leclerc"}, {"manufacturer": "FROMI RUNGIS"}, {"manufacturer": "Qdelicias"}, {"manufacturer": "Bourgogne Gourmande Eurodispal"}, {"manufacturer": "Highland Valley Apiaries"}, {"manufacturer": "Cuisine En France"}, {"manufacturer": "Bontal", "ateco": "10.89.09", "city": "Angri", "zipCode": "84012", "address": "VIA LARGO BADIA, 20, 84012, Angri, Salerno"}, {"manufacturer": "Cobot", "ateco": "27.11", "city": "Cornedo Vicentino", "zipCode": "36073", "address": "VIA ZAMPERETTI NICOLO', 8, 36073, Cornedo Vicentino, Vicenza", "website": "http://www.cobot.it"}, {"manufacturer": "Yogi Tea Choco"}, {"manufacturer": "Domaine Auzias Paretlongue"}, {"manufacturer": "Ribambel"}, {"manufacturer": "MEIJER", "ateco": "82.11.01", "city": "Settime", "zipCode": "14020", "address": "VIA CASTELLO ANTICO, 20, 14020, Settime, Asti"}, {"manufacturer": "Le Boucher Vert"}, {"manufacturer": "Zafra Moreno"}, {"manufacturer": "Ziaja"}, {"manufacturer": "Jean Floc H"}, {"manufacturer": "Conserverie Artisanale Larroque"}, {"manufacturer": "Chateau Le Fregne"}, {"manufacturer": "Copan", "ateco": "68.20.01", "city": "Torino", "zipCode": "10122", "address": "CORSO REGINA MARGHERITA, 157, 10122, Torino, Torino"}, {"manufacturer": "Crusoe", "ateco": "94", "city": "Roma", "zipCode": "00198", "address": "VIA GAETANO DONIZETTI, 24, 00198, Roma, Roma"}, {"manufacturer": "Storck Nimm"}, {"manufacturer": "Matnara"}, {"manufacturer": "Basson Bakery Inc"}, {"manufacturer": "Lewiatan Bakalland"}, {"manufacturer": "Alelor", "ateco": "56.10.11", "city": "Roma", "zipCode": "00171", "address": "VIA DEI GELSI, 96, 00171, Roma, Roma"}, {"manufacturer": "Tin Roof"}, {"manufacturer": "Culinary Secrets"}, {"manufacturer": "Rabenhorst Plus"}, {"manufacturer": "Mpk Foods Inc"}, {"manufacturer": "Mamone Netto Marknad Sverige Berte Qvarn"}, {"manufacturer": "Comme Des Gormands"}, {"manufacturer": "Best s Foods"}, {"manufacturer": "New Covent Garden Soup Co"}, {"manufacturer": "Spicebar"}]]